satname,norad_id,inclination_deg,eccentricity,mean_motion_rev_per_day,perigee_km,apogee_km,l1,l2
STARLINK-1202,45183,53.1626,0.0001042,15.30197698,474.50782278316456,475.93606278684183,1 45183U 20012F   26073.84837692  .00004362  00000+0  15930-3 0  9996,2 45183  53.1626  15.2886 0001042  79.7225 280.3893 15.30197698335749
STARLINK-1216,45185,53.1621,0.0001341,15.30190696,474.32381138919027,476.16188786486055,1 45185U 20012H   26073.12043592  .00001105  00000+0  49439-4 0  9991,2 45185  53.1621  18.6483 0001341  92.7462 267.3693 15.30190696335571
STARLINK-1225,45187,53.1616,0.0001341,15.3019272,474.3177688458536,476.1558437006952,1 45187U 20012K   26073.83579446 -.00002033  00000+0 -56557-4 0  9995,2 45187  53.1616  15.7666 0001341  93.7797 266.3357 15.30192720335723
STARLINK-1230,45189,53.1615,0.0001293,15.30198017,474.3348511181339,476.1071294944268,1 45189U 20012M   26073.84528923  .00003215  00000+0  12063-3 0  9996,2 45189  53.1615  15.7855 0001293  84.1223 275.9925 15.30198017332952
STARLINK-1234,45190,53.0426,0.0004319,15.63729175,373.9786098012355,379.8136074004442,1 45190U 20012N   26073.89485586  .00122568  00000+0  12743-2 0  9997,2 45190  53.0426 299.8299 0004319 311.5498  48.5145 15.63729175336697
STARLINK-1269,45197,53.1622,0.0001373,15.301751,474.34844189215073,476.23039278635224,1 45197U 20012V   26073.12365688  .00003919  00000+0  14447-3 0  9992,2 45197  53.1622  18.9932 0001373 109.7077 250.4072 15.30175100335592
STARLINK-1154,45198,53.0491,0.000746,15.47078444,420.20246660192424,430.35316150449125,1 45198U 20012W   26073.92031221  .00085891  00000+0  16579-2 0  9990,2 45198  53.0491 345.0358 0007460 110.2346 249.9464 15.47078444336108
STARLINK-1199,45201,53.1606,0.0001407,15.3020951,474.2224117795804,476.1509370615631,1 45201U 20012Z   26073.94202747  .00003883  00000+0  14311-3 0  9994,2 45201  53.1606 359.4390 0001407  87.1748 272.9414 15.30209510335966
STARLINK-1209,45206,53.0461,0.0006209,15.52089759,406.41041398889956,414.84069933176033,1 45206U 20012AE  26073.89243816  .00088527  00000+0  14322-2 0  9994,2 45206  53.0461 308.4182 0006209 290.4247  69.6095 15.52089759335725
STARLINK-1231,45212,53.0496,0.0004375,15.21662304,497.8166617144325,503.8357545215358,1 45212U 20012AL  26073.93536601  .00040420  00000+0  17696-2 0  9990,2 45212  53.0496 351.6921 0004375 109.5752 250.5716 15.21662304336028
STARLINK-1271,45217,53.1602,0.000109,15.30189018,474.50084093818805,475.9948788376432,1 45217U 20012AR  26073.93992386 -.00008346  00000+0 -27006-3 0  9991,2 45217  53.1602 359.5772 0001090  54.0618 306.0484 15.30189018335967
STARLINK-1191,45222,53.1599,0.0001189,15.30519845,473.4454861858312,475.0749862486027,1 45222U 20012AW  26073.89432635  .00050885  00000+0  17015-2 0  9999,2 45222  53.1599 334.6482 0001189 108.4279 251.6852 15.30519845336315
STARLINK-1212,45223,53.0495,0.0005845,15.53191475,403.44873376834585,411.3810439264089,1 45223U 20012AX  26073.93610377  .00065447  00000+0  10226-2 0  9993,2 45223  53.0495 324.8135 0005845 135.7012 224.4466 15.53191475336451
STARLINK-1215,45225,53.1596,0.0001248,15.30220651,474.29811930597225,476.0087005922969,1 45225U 20012AZ  26073.94618403  .00007558  00000+0  26688-3 0  9993,2 45225  53.1596 333.8890 0001248  87.4585 272.6559 15.30220651336288
STARLINK-1221,45227,53.0644,0.000336,15.42123578,437.55216204023145,442.133844602462,1 45227U 20012BB  26073.77253664  .00023765  00000+0  55445-3 0  9991,2 45227  53.0644 245.5261 0003360  55.6022 304.5300 15.42123578337490
STARLINK-1222,45228,53.0555,0.000385,15.49867988,414.49573371449515,419.7280753709938,1 45228U 20012BC  26073.97376834  .00043571  00000+0  77158-3 0  9991,2 45228  53.0555 317.4725 0003850 100.1548 259.9895 15.49867988336442
STARLINK-1226,45229,53.1613,0.0001522,15.30566884,473.07692526185747,475.1627522435738,1 45229U 20012BD  26073.90997670  .00053529  00000+0  17861-2 0  9990,2 45229  53.1613 334.3654 0001522  90.1311 269.9865 15.30566884336212
STARLINK-1227,45230,53.1599,7.04e-05,15.31163365,471.8578698346337,472.8224170164285,1 45230U 20012BE  26073.92897353  .00019364  00000+0  64475-3 0  9994,2 45230  53.1599 334.4982 0000704  96.3991 263.7091 15.31163365336339
STARLINK-1246,45235,53.1606,0.0001401,15.30187472,474.2923161587578,476.21263588994043,1 45235U 20012BK  26073.85154353  .00010398  00000+0  36284-3 0  9992,2 45235  53.1606  15.2702 0001401  80.6212 279.4947 15.30187472335768
STARLINK-1270,45237,53.0501,0.0003733,15.47945099,420.19943797960696,425.2769714074302,1 45237U 20012BM  26073.94290776  .00082729  00000+0  15516-2 0  9995,2 45237  53.0501 322.4453 0003733 120.0718 240.0660 15.47945099336480
STARLINK-1279,45360,53.0429,0.0002188,15.58017055,391.9149670512452,394.8781901452394,1 45360U 20019A   26073.70224728  .00136806  00000+0  17677-2 0  9993,2 45360  53.0429  74.3553 0002188  71.3349 288.7900 15.58017055331453
STARLINK-1301,45361,53.042,7.32e-05,15.65502096,371.30102958614316,372.28921964918845,1 45361U 20019B   26073.38524792  .00065378  00000+0  64080-3 0  9998,2 45361  53.0420  81.0185 0000732 187.6656 172.4348 15.65502096331341
STARLINK-1262,45366,53.1568,0.0001218,15.29362093,476.88300772940875,478.5530940198023,1 45366U 20019G   26073.89989699  .00001846  00000+0  76259-4 0  9992,2 45366  53.1568 140.9404 0001218  89.7835 270.3305 15.29362093330554
STARLINK-1273,45367,53.0517,0.0003079,15.45058672,429.1090849268103,433.3022781501013,1 45367U 20019H   26073.58135869  .00084083  00000+0  17414-2 0  9991,2 45367  53.0517 131.5305 0003079  17.2640 342.8470 15.45058672330653
STARLINK-1276,45368,53.0723,0.0001458,15.11048791,531.9925801415602,534.0078677560641,1 45368U 20019J   26073.91305723  .00025532  00000+0  15214-2 0  9997,2 45368  53.0723 143.0435 0001458  95.6566 264.4592 15.11048791330525
STARLINK-1277,45369,53.0505,0.0004759,15.49811533,414.0429864537391,420.5108614265464,1 45369U 20019K   26074.00002315  .00127523  00000+0  22232-2 0  9991,2 45369  53.0505 127.1576 0004759  28.4876  62.5405 15.49811533  5801
STARLINK-1281,45370,53.1591,0.0001404,15.30186258,474.2938844700211,476.21831725274296,1 45370U 20019L   26074.00002315  .00063101  00000+0  21255-2 0  9998,2 45370  53.1591 140.6235 0001404  92.2087 117.8467 15.30186258  5843
STARLINK-1300,45374,53.1575,0.0001949,15.29372307,476.35132582838924,479.0237262286364,1 45374U 20019Q   26073.91585082 -.00001746  00000+0 -48156-4 0  9998,2 45374  53.1575 140.9875 0001949  62.7473 297.3726 15.29372307330558
STARLINK-1302,45375,53.0523,0.0003429,15.54580136,401.04801697050334,405.6987768006875,1 45375U 20019R   26073.85042916  .00090982  00000+0  13451-2 0  9992,2 45375  53.0523 126.8443 0003429 332.6793  27.4036 15.54580136330740
STARLINK-1304,45376,53.0495,0.00033,15.49213455,416.7826728800828,421.2688002862278,1 45376U 20019S   26073.87232851  .00082334  00000+0  14775-2 0  9996,2 45376  53.0495 124.6767 0003300 358.0128   2.0866 15.49213455330770
STARLINK-1305,45377,53.0438,0.0002892,15.54022429,403.0341151604671,406.95747917034805,1 45377U 20019T   26073.47061501  .00090307  00000+0  13628-2 0  9990,2 45377  53.0438 109.1931 0002892  93.0822 267.0519 15.54022429330965
STARLINK-1319,45379,53.044,0.0002694,15.6586159,368.9438220403563,372.58012880831484,1 45379U 20019V   26073.90553961  .00065727  00000+0  63492-3 0  9999,2 45379  53.0440 104.0925 0002694  64.8892 295.2402 15.65861590331079
STARLINK-1266,45383,53.0501,0.0004966,15.46232364,424.37961150685715,431.1392278308713,1 45383U 20019Z   26073.37841758  .00075584  00000+0  15059-2 0  9996,2 45383  53.0501 110.6049 0004966  28.9153 331.2128 15.46232364330926
STARLINK-1267,45384,53.05,0.0002441,15.50715201,412.97856606647474,416.29479817808715,1 45384U 20019AA  26073.77732853  .00104194  00000+0  17664-2 0  9990,2 45384  53.0500 102.5838 0002441 301.9508  58.1263 15.50715201331079
STARLINK-1272,45386,53.0437,0.0002435,15.57388414,393.56936698993286,396.8679912056541,1 45386U 20019AC  26073.73896256  .00054987  00000+0  73887-3 0  9990,2 45386  53.0437  85.2925 0002435 119.0149 241.1106 15.57388414331312
STARLINK-1274,45387,53.0269,0.0002822,15.47907069,420.9303580729793,424.7688349080381,1 45387U 20019AD  26073.50135717  .00102363  00000+0  19158-2 0  9996,2 45387  53.0269  79.9216 0002822 251.1353 108.9347 15.47907069331368
STARLINK-1280,45388,53.0425,0.0001572,15.66117485,368.96598869001537,371.087611388748,1 45388U 20019AE  26073.50163309  .00073646  00000+0  70291-3 0  9992,2 45388  53.0425  98.8402 0001572  83.9894 276.1300 15.66117485331095
STARLINK-1283,45389,53.0441,0.0002697,15.57546385,392.9340382253986,396.58733923870113,1 45389U 20019AF  26073.47006033  .00080663  00000+0  10710-2 0  9995,2 45389  53.0441  86.8083 0002697 257.8175 102.2534 15.57546385331272
STARLINK-1284,45390,53.0486,0.0004597,15.52653579,405.8619353864733,412.1020125711484,1 45390U 20019AG  26073.37842717  .00065548  00000+0  10445-2 0  9993,2 45390  53.0486 108.4124 0004597  30.8412 329.2866 15.52653579330956
STARLINK-1297,45395,53.0476,0.0005517,15.55211098,397.79871566466045,405.2794102325179,1 45395U 20019AM  26073.89640175  .00105615  00000+0  15213-2 0  9997,2 45395  53.0476 105.5405 0005517  36.1754 323.9629 15.55211098330228
STARLINK-1307,45397,53.0542,0.0002525,15.50279913,414.19264407790706,417.6236368738473,1 45397U 20019AP  26073.38926988  .00027850  00000+0  48996-3 0  9991,2 45397  53.0542 108.1908 0002525  48.2929 311.8295 15.50279913330786
STARLINK-1255,45399,53.0412,0.0001721,15.52828415,407.30453888703505,409.6404898818855,1 45399U 20019AR  26073.71080356  .00114207  00000+0  17923-2 0  9998,2 45399  53.0412  78.5591 0001721   9.4522 350.6519 15.52828415331215
STARLINK-1260,45404,53.1602,0.000202,15.3022065,473.7690482714743,476.53777759830064,1 45404U 20019AW  26073.79224956  .00004181  00000+0  15314-3 0  9991,2 45404  53.1602 105.5405 0002020  83.5272 276.5958 15.30220650330751
